{
  "norad_id": 53685,
  "name": "STARLINK-4626",
  "history": [
    {
      "epoch": "2026-03-28T22:05:49.741440Z",
      "apogee_km": 564.3935977510473,
      "perigee_km": 561.610617437248,
      "latitude_deg": 9.710021963151899e-06,
      "longitude_deg": 171.24100905637752,
      "height_km": 565.7161503115868,
      "semi_major_axis_km": 6941.139107594147,
      "eccentricity": 0.00020047,
      "inclination_deg": 97.6025,
      "raan_deg": 329.0325,
      "arg_perigee_deg": 75.7745,
      "mean_anomaly_deg": 284.3702,
      "mean_motion_rev_day": 15.01262511
    },
    {
      "epoch": "2026-03-29T02:53:45.948480Z",
      "apogee_km": 564.3924072050368,
      "perigee_km": 561.6062350857292,
      "latitude_deg": -1.7413439614939098e-05,
      "longitude_deg": 99.2554309616988,
      "height_km": 565.7133458771305,
      "semi_major_axis_km": 6941.136321145383,
      "eccentricity": 0.0002007,
      "inclination_deg": 97.6024,
      "raan_deg": 329.2282,
      "arg_perigee_deg": 75.7902,
      "mean_anomaly_deg": 284.3545,
      "mean_motion_rev_day": 15.01263415
    },
    {
      "epoch": "2026-03-30T04:29:26.374848Z",
      "apogee_km": 564.3922481638056,
      "perigee_km": 561.6213435604986,
      "latitude_deg": 2.1517403706084503e-05,
      "longitude_deg": 75.32975191001043,
      "height_km": 565.7431090853318,
      "semi_major_axis_km": 6941.143795862152,
      "eccentricity": 0.0001996,
      "inclination_deg": 97.602,
      "raan_deg": 330.2721,
      "arg_perigee_deg": 76.6589,
      "mean_anomaly_deg": 283.4858,
      "mean_motion_rev_day": 15.0126099
    },
    {
      "epoch": "2026-03-30T06:05:25.149984Z",
      "apogee_km": 564.3919671683097,
      "perigee_km": 561.62245062896,
      "latitude_deg": -6.069598659102062e-05,
      "longitude_deg": 51.33437080752242,
      "height_km": 565.7420634665061,
      "semi_major_axis_km": 6941.144208898635,
      "eccentricity": 0.0001995,
      "inclination_deg": 97.6019,
      "raan_deg": 330.3373,
      "arg_perigee_deg": 76.5893,
      "mean_anomaly_deg": 283.5553,
      "mean_motion_rev_day": 15.01260856
    },
    {
      "epoch": "2026-03-30T06:05:25.150848Z",
      "apogee_km": 564.3918283454268,
      "perigee_km": 561.6225894518439,
      "latitude_deg": -5.84579378301165e-05,
      "longitude_deg": 51.33436690060497,
      "height_km": 565.7420956679088,
      "semi_major_axis_km": 6941.144208898635,
      "eccentricity": 0.00019948,
      "inclination_deg": 97.6019,
      "raan_deg": 330.3373,
      "arg_perigee_deg": 76.5893,
      "mean_anomaly_deg": 283.5553,
      "mean_motion_rev_day": 15.01260856
    },
    {
      "epoch": "2026-03-30T22:05:12.014016Z",
      "apogee_km": 564.3762699522549,
      "perigee_km": 561.5837197628834,
      "latitude_deg": 3.7684532685191645e-05,
      "longitude_deg": 171.3844449229476,
      "height_km": 565.7161740709223,
      "semi_major_axis_km": 6941.116994857569,
      "eccentricity": 0.00020116,
      "inclination_deg": 97.6014,
      "raan_deg": 330.9896,
      "arg_perigee_deg": 76.7586,
      "mean_anomaly_deg": 283.3863,
      "mean_motion_rev_day": 15.01269685
    },
    {
      "epoch": "2026-03-31T06:04:49.006272Z",
      "apogee_km": 564.0567790342166,
      "perigee_km": 560.664263845737,
      "latitude_deg": 6.753560018465746e-06,
      "longitude_deg": 51.47842922119753,
      "height_km": 565.0536945039998,
      "semi_major_axis_km": 6940.4975214399765,
      "eccentricity": 0.0002444,
      "inclination_deg": 97.6012,
      "raan_deg": 331.316,
      "arg_perigee_deg": 77.666,
      "mean_anomaly_deg": 282.4838,
      "mean_motion_rev_day": 15.01470683
    },
    {
      "epoch": "2026-04-01T17:14:29.579424Z",
      "apogee_km": 561.4771658471018,
      "perigee_km": 557.6184255637299,
      "latitude_deg": -9.229022862366713e-06,
      "longitude_deg": -115.94934358407578,
      "height_km": 561.1677058925316,
      "semi_major_axis_km": 6937.684795705415,
      "eccentricity": 0.0002781,
      "inclination_deg": 97.604,
      "raan_deg": 332.7513,
      "arg_perigee_deg": 41.8366,
      "mean_anomaly_deg": 318.3071,
      "mean_motion_rev_day": 15.02383881
    },
    {
      "epoch": "2026-04-02T20:00:01.999008Z",
      "apogee_km": 554.3370397881226,
      "perigee_km": 551.5604468393512,
      "latitude_deg": -82.43459009981731,
      "longitude_deg": -69.06519870950031,
      "height_km": 582.7087076084042,
      "semi_major_axis_km": 6931.085743313737,
      "eccentricity": 0.0002003,
      "inclination_deg": 97.603,
      "raan_deg": 333.8418,
      "arg_perigee_deg": 84.8269,
      "mean_anomaly_deg": 185.4039,
      "mean_motion_rev_day": 15.0453001
    },
    {
      "epoch": "2026-04-02T22:00:01.999584Z",
      "apogee_km": 553.8812997218238,
      "perigee_km": 551.4807415921887,
      "latitude_deg": 1.0165033495650093,
      "longitude_deg": 172.5217668974083,
      "height_km": 555.6746539225256,
      "semi_major_axis_km": 6930.818020657006,
      "eccentricity": 0.00017318,
      "inclination_deg": 97.6007,
      "raan_deg": 333.9235,
      "arg_perigee_deg": 93.8268,
      "mean_anomaly_deg": 267.3346,
      "mean_motion_rev_day": 15.04617186
    },
    {
      "epoch": "2026-04-03T20:00:01.999008Z",
      "apogee_km": 551.1270269326033,
      "perigee_km": 548.7299162794279,
      "latitude_deg": -74.42136290299177,
      "longitude_deg": -128.90641595856962,
      "height_km": 578.1764133773642,
      "semi_major_axis_km": 6928.065471606015,
      "eccentricity": 0.000173,
      "inclination_deg": 97.603,
      "raan_deg": 334.8293,
      "arg_perigee_deg": 78.8309,
      "mean_anomaly_deg": 204.9495,
      "mean_motion_rev_day": 15.05513961
    },
    {
      "epoch": "2026-04-04T06:00:02.000160Z",
      "apogee_km": 550.5581033054696,
      "perigee_km": 548.5801046586612,
      "latitude_deg": 20.374065188310446,
      "longitude_deg": 49.83081739624145,
      "height_km": 551.8168253852119,
      "semi_major_axis_km": 6927.7061039820655,
      "eccentricity": 0.00014276,
      "inclination_deg": 97.6032,
      "raan_deg": 335.2378,
      "arg_perigee_deg": 85.4014,
      "mean_anomaly_deg": 295.1708,
      "mean_motion_rev_day": 15.05631108
    },
    {
      "epoch": "2026-04-05T14:00:03.000384Z",
      "apogee_km": 550.8664727946725,
      "perigee_km": 548.3406185917129,
      "latitude_deg": 42.75130753819579,
      "longitude_deg": -74.39163598845205,
      "height_km": 554.8574320264607,
      "semi_major_axis_km": 6927.740545693192,
      "eccentricity": 0.0001823,
      "inclination_deg": 97.6034,
      "raan_deg": 336.5572,
      "arg_perigee_deg": 71.6987,
      "mean_anomaly_deg": 331.4387,
      "mean_motion_rev_day": 15.0561988
    },
    {
      "epoch": "2026-04-05T20:00:03.000384Z",
      "apogee_km": 550.6096047590227,
      "perigee_km": 548.2985603738789,
      "latitude_deg": -42.4705091228487,
      "longitude_deg": -150.3630101256885,
      "height_km": 566.3216710764664,
      "semi_major_axis_km": 6927.5910825664505,
      "eccentricity": 0.0001668,
      "inclination_deg": 97.6032,
      "raan_deg": 336.8028,
      "arg_perigee_deg": 72.7208,
      "mean_anomaly_deg": 244.6338,
      "mean_motion_rev_day": 15.05668606
    },
    {
      "epoch": "2026-04-06T06:00:02.000160Z",
      "apogee_km": 550.6084486175323,
      "perigee_km": 548.2392228117187,
      "latitude_deg": 53.73585574325865,
      "longitude_deg": 42.23503482762872,
      "height_km": 557.1873854266763,
      "semi_major_axis_km": 6927.560835714626,
      "eccentricity": 0.000171,
      "inclination_deg": 97.6035,
      "raan_deg": 337.2135,
      "arg_perigee_deg": 77.1051,
      "mean_anomaly_deg": 337.2301,
      "mean_motion_rev_day": 15.05678467
    },
    {
      "epoch": "2026-04-07T12:03:52.153344Z",
      "apogee_km": 550.6933391153243,
      "perigee_km": 548.0935754853081,
      "latitude_deg": -6.05227188941794e-06,
      "longitude_deg": -38.29826317791782,
      "height_km": 551.8766410330594,
      "semi_major_axis_km": 6927.530457300316,
      "eccentricity": 0.00018764,
      "inclination_deg": 97.6035,
      "raan_deg": 338.4477,
      "arg_perigee_deg": 63.5398,
      "mean_anomaly_deg": 296.6021,
      "mean_motion_rev_day": 15.05688371
    },
    {
      "epoch": "2026-04-08T13:35:05.632224Z",
      "apogee_km": 550.6415659263848,
      "perigee_km": 548.399637373338,
      "latitude_deg": -7.924419320761168e-05,
      "longitude_deg": -61.10430469594901,
      "height_km": 552.3735856618396,
      "semi_major_axis_km": 6927.657601649861,
      "eccentricity": 0.00016181,
      "inclination_deg": 97.6039,
      "raan_deg": 339.4959,
      "arg_perigee_deg": 79.2247,
      "mean_anomaly_deg": 280.9161,
      "mean_motion_rev_day": 15.0564692
    }
  ]
}